NORAD_CAT_ID,OBJECT_NAME,OBJECT_TYPE,EPOCH,MEAN_MOTION,ECCENTRICITY,INCLINATION,RA_OF_ASC_NODE,ARG_OF_PERICENTER,MEAN_ANOMALY,BSTAR,MEAN_MOTION_DOT,MEAN_MOTION_DDOT,TLE_LINE0,TLE_LINE1,TLE_LINE2,SEMIMAJOR_AXIS,PERIOD,APOGEE,PERIGEE,DECAYED
53636.0,STARLINK-4586,PAYLOAD,2024-01-03 20:30:26,15.08829166,0.0001441,53.2152,196.5908,81.1451,278.9705,-3.9321e-05,-9.13e-06,0.0,0 STARLINK-4586,1 53636U 22104BA  24003.85447792 -.00000913  00000-0 -39321-4 0  9994,2 53636  53.2152 196.5908 0001441  81.1451 278.9705 15.08829166 76086,6917.914,95.438,540.775,538.782,0.0
53636.0,STARLINK-4586,PAYLOAD,2024-01-04 21:56:37,15.08833149,0.0001469,53.2152,191.8327,82.2401,277.8758,-1.7998e-05,-5.74e-06,0.0,0 STARLINK-4586,1 53636U 22104BA  24004.91432014 -.00000574  00000-0 -17998-4 0  9992,2 53636  53.2152 191.8327 0001469  82.2401 277.8758 15.08833149 76246,6917.901,95.438,540.783,538.75,0.0
53636.0,STARLINK-4586,PAYLOAD,2024-01-05 12:15:05,15.08829723,0.0001458,53.2153,189.1561,83.02,277.0958,9.4882e-05,1.222e-05,0.0,0 STARLINK-4586,1 53636U 22104BA  24005.51048141  .00001222  00000-0  94882-4 0  9999,2 53636  53.2153 189.1561 0001458  83.0200 277.0958 15.08829723 76338,6917.912,95.438,540.785,538.768,0.0
53636.0,STARLINK-4586,PAYLOAD,2024-01-05 18:36:38,15.08831436,0.0001419,53.2152,187.9666,86.3604,273.755,0.00010682,1.412e-05,0.0,0 STARLINK-4586,1 53636U 22104BA  24005.77544162  .00001412  00000-0  10682-3 0  9997,2 53636  53.2152 187.9666 0001419  86.3604 273.7550 15.08831436 76379,6917.907,95.438,540.753,538.79,0.0
53636.0,STARLINK-4586,PAYLOAD,2024-01-06 16:52:01,15.08841094,0.0001382,53.2152,183.8032,89.8381,270.2769,0.00011803,1.591e-05,0.0,0 STARLINK-4586,1 53636U 22104BA  24006.70279779  .00001591  00000-0  11803-3 0  9994,2 53636  53.2152 183.8032 0001382  89.8381 270.2769 15.08841094 75497,6917.877,95.437,540.698,538.786,0.0
53636.0,STARLINK-4586,PAYLOAD,2024-01-06 21:38:11,15.08842267,0.0001388,53.2152,182.911,90.0453,270.0698,0.00012208,1.656e-05,0.0,0 STARLINK-4586,1 53636U 22104BA  24006.90151659  .00001656  00000-0  12208-3 0  9994,2 53636  53.2152 182.9110 0001388  90.0453 270.0698 15.08842267 76543,6917.873,95.437,540.699,538.778,0.0
53636.0,STARLINK-4586,PAYLOAD,2024-01-07 10:21:15,15.08847735,0.0001366,53.2153,180.5322,87.3315,272.7834,0.00013212,1.816e-05,0.0,0 STARLINK-4586,1 53636U 22104BA  24007.43143166  .00001816  00000-0  13212-3 0  9991,2 53636  53.2153 180.5322 0001366  87.3315 272.7834 15.08847735 76620,6917.857,95.437,540.667,538.777,0.0
53636.0,STARLINK-4586,PAYLOAD,2024-01-07 18:18:10,15.088537,0.0001375,53.2154,179.0454,84.6604,275.4545,0.00014516,2.024e-05,0.0,0 STARLINK-4586,1 53636U 22104BA  24007.76262616  .00002024  00000-0  14516-3 0  9999,2 53636  53.2154 179.0454 0001375  84.6604 275.4545 15.08853700 75651,6917.839,95.437,540.655,538.752,0.0
53636.0,STARLINK-4586,PAYLOAD,2024-01-08 11:47:25,15.08845966,0.0001356,53.2153,175.7741,90.3371,269.7777,1.2259e-05,-9.3e-07,0.0,0 STARLINK-4586,1 53636U 22104BA  24008.49127138 -.00000093  00000-0  12259-4 0  9997,2 53636  53.2153 175.7741 0001356  90.3371 269.7777 15.08845966 75766,6917.862,95.437,540.665,538.789,0.0
53636.0,STARLINK-4586,PAYLOAD,2024-01-08 14:58:12,15.08845159,0.0001334,53.2151,175.1795,97.0444,263.07,-7.9469e-07,-3.01e-06,0.0,0 STARLINK-4586,1 53636U 22104BA  24008.62375145 -.00000301  00000-0 -79469-6 0  9996,2 53636  53.2151 175.1795 0001334  97.0444 263.0700 15.08845159 76801,6917.865,95.437,540.652,538.807,0.0
53636.0,STARLINK-4586,PAYLOAD,2024-01-08 16:33:35,15.08845059,0.0001317,53.2154,174.8818,98.3065,261.8077,-4.8562e-06,-3.65e-06,0.0,0 STARLINK-4586,1 53636U 22104BA  24008.68999125 -.00000365  00000-0 -48562-5 0  9991,2 53636  53.2154 174.8818 0001317  98.3065 261.8077 15.08845059 76813,6917.865,95.437,540.641,538.819,0.0
53636.0,STARLINK-4586,PAYLOAD,2024-01-09 14:48:58,15.08847187,0.0001287,53.2153,170.7184,94.8388,265.2751,-4.4255e-05,-9.92e-06,0.0,0 STARLINK-4586,1 53636U 22104BA  24009.61734830 -.00000992  00000-0 -44255-4 0  9995,2 53636  53.2153 170.7184 0001287  94.8388 265.2751 15.08847187 76954,6917.858,95.437,540.614,538.833,0.0
53636.0,STARLINK-4586,PAYLOAD,2024-01-09 17:59:45,15.08848276,0.0001386,53.2156,170.1238,90.5408,269.5743,-2.9372e-05,-7.55e-06,0.0,0 STARLINK-4586,1 53636U 22104BA  24009.74982698 -.00000755  00000-0 -29372-4 0  9996,2 53636  53.2156 170.1238 0001386  90.5408 269.5743 15.08848276 75954,6917.855,95.437,540.679,538.761,0.0
53636.0,STARLINK-4586,PAYLOAD,2024-01-09 21:10:31,15.08848806,0.00013,53.2157,169.529,86.7597,273.3544,-4.4125e-05,-9.9e-06,0.0,0 STARLINK-4586,1 53636U 22104BA  24009.88230646 -.00000990  00000-0 -44125-4 0  9994,2 53636  53.2157 169.5290 0001300  86.7597 273.3544 15.08848806 76993,6917.853,95.437,540.618,538.819,0.0
53636.0,STARLINK-4586,PAYLOAD,2024-01-10 09:53:36,15.08835123,0.0001278,53.2156,167.1504,87.1813,272.9326,2.9861e-05,1.87e-06,0.0,0 STARLINK-4586,1 53636U 22104BA  24010.41223281  .00000187  00000-0  29861-4 0  9998,2 53636  53.2156 167.1504 0001278  87.1813 272.9326 15.08835123 76052,6917.895,95.438,540.644,538.876,0.0
53636.0,STARLINK-4586,PAYLOAD,2024-01-10 19:25:55,15.0884331,0.0001262,53.2155,165.366,93.7955,266.3181,8.8033e-05,1.114e-05,0.0,0 STARLINK-4586,1 53636U 22104BA  24010.80966616  .00001114  00000-0  88033-4 0  9994,2 53636  53.2155 165.3660 0001262  93.7955 266.3181 15.08843310 76117,6917.87,95.437,540.608,538.862,0.0
53636.0,STARLINK-4586,PAYLOAD,2024-01-11 14:30:32,15.08848379,0.0001127,53.2154,161.7977,105.5363,254.5754,2.4204e-05,9.7e-07,0.0,0 STARLINK-4586,1 53636U 22104BA  24011.60454386  .00000097  00000-0  24204-4 0  9998,2 53636  53.2154 161.7977 0001127 105.5363 254.5754 15.08848379 77253,6917.855,95.437,540.499,538.94,0.0
53636.0,STARLINK-4586,PAYLOAD,2024-01-11 19:16:41,15.08851799,0.0001287,53.2153,160.9054,98.5167,261.5971,0.00013939,1.932e-05,0.0,0 STARLINK-4586,1 53636U 22104BA  24011.80325869  .00001932  00000-0  13939-3 0  9994,2 53636  53.2153 160.9054 0001287  98.5167 261.5971 15.08851799 77281,6917.844,95.437,540.6,538.819,0.0
53636.0,STARLINK-4586,PAYLOAD,2024-01-12 09:35:11,15.08832415,0.0001297,53.2155,158.2284,103.3141,256.7995,2.431e-05,9.9e-07,0.0,0 STARLINK-4586,1 53636U 22104BA  24012.39943568  .00000099  00000-0  24310-4 0  9990,2 53636  53.2155 158.2284 0001297 103.3141 256.7995 15.08832415 76359,6917.904,95.438,540.666,538.871,0.0
53636.0,STARLINK-4586,PAYLOAD,2024-01-12 14:21:20,15.08837355,0.0001287,53.2154,157.3374,106.798,253.3154,6.5524e-06,-1.84e-06,0.0,0 STARLINK-4586,1 53636U 22104BA  24012.59815324 -.00000184  00000-0  65524-5 0  9999,2 53636  53.2154 157.3374 0001287 106.7980 253.3154 15.08837355 77400,6917.888,95.438,540.644,538.863,0.0
53636.0,STARLINK-4586,PAYLOAD,2024-01-12 15:56:43,15.08839506,0.0001326,53.2154,157.0395,108.9034,251.2102,2.1333e-05,5.2e-07,0.0,0 STARLINK-4586,1 53636U 22104BA  24012.66439153  .00000052  00000-0  21333-4 0  9991,2 53636  53.2154 157.0395 0001326 108.9034 251.2102 15.08839506 76395,6917.882,95.438,540.664,538.83,0.0
53636.0,STARLINK-4586,PAYLOAD,2024-01-13 09:25:57,15.08849291,0.000142,53.216,153.7673,107.7197,252.395,3.5109e-05,2.71e-06,0.0,0 STARLINK-4586,1 53636U 22104BA  24013.39302558  .00000271  00000-0  35109-4 0  9999,2 53636  53.2160 153.7673 0001420 107.7197 252.3950 15.08849291 76504,6917.852,95.437,540.699,538.735,0.0
53636.0,STARLINK-4586,PAYLOAD,2024-01-13 14:12:05,15.08871617,0.0001449,53.2168,152.877,89.1487,270.9671,0.00020935,3.048e-05,0.0,0 STARLINK-4586,1 53636U 22104BA  24013.59172662  .00003048  00000-0  20935-3 0  9997,2 53636  53.2168 152.8770 0001449  89.1487 270.9671 15.08871617 77555,6917.784,95.436,540.651,538.646,0.0
53636.0,STARLINK-4586,PAYLOAD,2024-01-13 15:47:28,15.08872202,0.0001427,53.2167,152.5796,87.0834,273.0322,0.00021368,3.117e-05,0.0,0 STARLINK-4586,1 53636U 22104BA  24013.65796530  .00003117  00000-0  21368-3 0  9998,2 53636  53.2167 152.5796 0001427  87.0834 273.0322 15.08872202 76544,6917.782,95.436,540.634,538.66,0.0
53636.0,STARLINK-4586,PAYLOAD,2024-01-14 12:27:31,15.08829495,0.0001304,53.2168,148.7103,117.6901,242.4224,-2.7264e-05,-7.22e-06,0.0,0 STARLINK-4586,1 53636U 22104BA  24014.51911877 -.00000722  00000-0 -27264-4 0  9990,2 53636  53.2168 148.7103 0001304 117.6901 242.4224 15.08829495 76674,6917.912,95.438,540.68,538.875,0.0
53636.0,STARLINK-4586,PAYLOAD,2024-01-14 14:02:55,15.08828125,0.0001248,53.2159,148.4141,123.5997,236.5115,-1.7278e-05,-5.63e-06,0.0,0 STARLINK-4586,1 53636U 22104BA  24014.58535965 -.00000563  00000-0 -17278-4 0  9994,2 53636  53.2159 148.4141 0001248 123.5997 236.5115 15.08828125 77708,6917.917,95.438,540.645,538.918,0.0
53636.0,STARLINK-4586,PAYLOAD,2024-01-15 12:18:18,15.08850361,0.0001073,53.216,144.2517,84.8354,275.276,-4.5713e-05,-1.015e-05,0.0,0 STARLINK-4586,1 53636U 22104BA  24015.51270842 -.00001015  00000-0 -45713-4 0  9996,2 53636  53.2160 144.2517 0001073  84.8354 275.2760 15.08850361 76828,6917.849,95.437,540.456,538.971,0.0
53636.0,STARLINK-4586,PAYLOAD,2024-01-15 13:53:41,15.08847991,9.33e-05,53.2156,143.9534,86.1653,273.9446,0.00019019,2.741e-05,0.0,0 STARLINK-4586,1 53636U 22104BA  24015.57894949  .00002741  00000-0  19019-3 0  9996,2 53636  53.2156 143.9534 0000933  86.1653 273.9446 15.08847991 77854,6917.856,95.437,540.366,539.076,0.0
53636.0,STARLINK-4586,PAYLOAD,2024-01-15 15:29:04,15.08855449,0.0001123,53.216,143.6572,83.923,276.189,7.7565e-05,9.47e-06,0.0,0 STARLINK-4586,1 53636U 22104BA  24015.64518580  .00000947  00000-0  77565-4 0  9995,2 53636  53.2160 143.6572 0001123  83.9230 276.1890 15.08855449 77862,6917.833,95.437,540.475,538.921,0.0
53636.0,STARLINK-4586,PAYLOAD,2024-01-16 12:09:05,15.08836278,0.0001547,53.2162,139.7882,152.3963,207.7112,0.00012801,1.75e-05,0.0,0 STARLINK-4586,1 53636U 22104BA  24016.50631511  .00001750  00000-0  12801-3 0  9995,2 53636  53.2162 139.7882 0001547 152.3963 207.7112 15.08836278 76975,6917.892,95.438,540.827,538.687,0.0
